FLOCK 2P-2              
1 41609U 16040L   17147.87284004  .00003974  00000-0  17658-3 0  9997
2 41609  97.4602 210.7000 0012307 138.9308 221.2857 15.22048694 51537
FLOCK 2P-9              
1 41610U 16040M   17147.88415390  .00001225  00000-0  56462-4 0  9998
2 41610  97.4599 210.6733 0012480 139.4759 220.7409 15.22108212 51411
FLOCK 2P-4              
1 41611U 16040N   17147.84546135  .00003029  00000-0  13532-3 0  9991
2 41611  97.4626 210.8293 0012505 147.8616 212.3385 15.22054921 51573
FLOCK 2P-10             
1 41612U 16040P   17147.88931467  .00001618  00000-0  73708-4 0  9996
2 41612  97.4636 210.9428 0012164 148.1254 212.0720 15.22062370 51587
FLOCK 2P-8              
1 41613U 16040Q   17147.77424832  .00002466  00000-0  11073-3 0  9996
2 41613  97.4627 210.7753 0012335 147.4687 212.7312 15.22063800 51560
FLOCK 2P-12             
1 41614U 16040R   17147.86746586  .00003944  00000-0  17526-3 0  9991
2 41614  97.4636 210.9991 0012065 146.7012 213.4986 15.22055117 51580
FLOCK 2P-7              
1 41615U 16040S   17147.90017077  .00002974  00000-0  13296-3 0  9995
2 41615  97.4623 210.9018 0012223 148.0587 212.1392 15.22040686 51587
FLOCK 2P-5              
1 41616U 16040T   17147.94406601  .00002418  00000-0  10864-3 0  9996
2 41616  97.4637 211.0492 0012090 146.1238 214.0773 15.22057276 51571
FLOCK 2P-1              
1 41617U 16040U   17147.86676849  .00002516  00000-0  11296-3 0  9990
2 41617  97.4640 210.9981 0011910 147.0669 213.1311 15.22055670 51580
FLOCK 2P-3              
1 41618U 16040V   17147.89490305  .00003186  00000-0  14226-3 0  9995
2 41618  97.4636 210.9566 0011939 146.7333 213.4656 15.22041053 51585
BEESAT-4                
1 41619U 16040W   17147.85894396  .00001728  00000-0  81701-4 0  9993
2 41619  97.4638 210.4416 0013429 134.2637 225.9702 15.20666253 39503
3CAT-2                  
1 41732U 16051B   17147.83362373  .00001414  00000-0  59761-4 0  9997
2 41732  97.3782  65.1260 0014086 353.1813  49.7452 15.24818694 43431
FLOCK 2E'-13            
1 41761U 98067KH  17147.33855409  .00006013  00000-0  78140-4 0  9990
2 41761  51.6375 135.6053 0005893 177.3033 182.7993 15.60347066 39650
FLOCK 2E'-14            
1 41762U 98067KJ  17147.96656906  .00007360  00000-0  93644-4 0  9993
2 41762  51.6385 132.3192 0005747 179.2495 180.8507 15.60513299 39755
FLOCK 2E'-16            
1 41763U 98067KK  17147.87948174  .00007607  00000-0  95101-4 0  9999
2 41763  51.6384 132.4837 0004856 190.4327 169.6566 15.60923844 39707
FLOCK 2E'-15            
1 41764U 98067KL  17147.86077392  .00006841  00000-0  88306-4 0  9992
2 41764  51.6384 133.1084 0005353 186.8043 173.2878 15.60265498 39696
FLOCK 2E'-18            
1 41769U 98067KM  17147.33462641  .00005827  00000-0  76060-4 0  9991
2 41769  51.6383 135.5885 0004251 210.1557 149.9192 15.60300222 39618
FLOCK 2E'-17            
1 41776U 98067KN  17147.96803646  .00006976  00000-0  89646-4 0  9992
2 41776  51.6391 132.3345 0004528 213.5247 146.5460 15.60349793 39708
FLOCK 2E'-19            
1 41777U 98067KP  17147.79438047  .00009721  00000-0  11254-3 0  9993
2 41777  51.6372 131.1434 0003451 211.4297 148.6491 15.62566001 39667
FLOCK 2E'-20            
1 41782U 98067KQ  17147.91233165  .00009719  00000-0  11531-3 0  9992
2 41782  51.6385 131.2016 0003388 207.5089 152.5727 15.61925090 39547
CANX-7                  
1 41788U 16059F   17147.83600475  .00008808  00000-0  16719-2 0  9992
2 41788  98.1716 209.7563 0032991 222.1378 137.7277 14.64089821 35615
ALSAT 1N                
1 41789U 16059G   17147.91943305  .00000116  00000-0  31329-4 0  9994
2 41789  98.1675 209.9597 0027420 216.6699 143.2612 14.64043302 35646
RAVAN                   
1 41849U 16067B   17147.77019633  .00001459  00000-0  13228-3 0  9990
2 41849  97.9499 225.5044 0008843  20.2862 339.8708 14.96937915 29452
CELTEE 1                
1 41850U 16067C   17147.73654230  .00000066  00000-0  11139-4 0  9999
2 41850  97.9487 225.3947 0009058  14.9029 345.2457 14.96535050 29440
OPTICUBE 04             
1 41851U 16067D   17147.74126746  .00000127  00000-0  16556-4 0  9993
2 41851  97.9486 225.3887 0009096  16.1460 344.0049 14.96473087 29443
AEROCUBE 8D             
1 41852U 16067E   17147.78505539 -.00000051  00000-0  89888-6 0  9996
2 41852  97.9505 225.3553 0010097  15.6675 344.4856 14.96181496 29441
AEROCUBE 8C             
1 41853U 16067F   17147.92365542 -.00000196  00000-0 -12013-4 0  9996
2 41853  97.9502 225.4837 0010433  15.5497 344.6042 14.96143289 29469
PROMETHEUS 2-1          
1 41854U 16067G   17147.73675008  .00000342  00000-0  35785-4 0  9999
2 41854  97.9501 225.2638 0010621  15.4656 344.6887 14.96083499 29431
PROMETHEUS 2-3          
1 41855U 16067H   17147.73801647  .00000381  00000-0  39279-4 0  9995
2 41855  97.9502 225.2644 0010771  15.7095 344.4458 14.96075602 29435
LEMUR-2-XIAOQING        
1 41871U 16062C   17147.31808063  .00001876  00000-0  95156-4 0  9997
2 41871  51.6289 186.1118 0006687 155.2773 292.0020 15.22080472 27765
LEMUR-2-SOKOLSKY        
1 41872U 16062D   17147.63258197  .00001086  00000-0  60920-4 0  9994
2 41872  51.6282 184.5005 0006127 161.0747 277.9332 15.22204991 27808
LEMUR-2-ANUBHAVTHAKUR   
1 41873U 16062E   17147.49507196  .00000369  00000-0  30702-4 0  9993
2 41873  51.6433 185.6848 0007648 163.6801 337.6036 15.21506563 27761
LEMUR-2-WINGO           
1 41874U 16062F   17147.91322095  .00002486  00000-0  12184-3 0  9999
2 41874  51.6356 183.3868 0006996 153.0974 267.1921 15.21952118 27842
STARS-C                 
1 41895U 98067KR  17147.85556273  .00021120  00000-0  25608-3 0  9998
2 41895  51.6376 136.0646 0002773 248.3379 111.7319 15.60579995 24812
TANCREDO-1              
1 41931U 98067KT  17147.87922928  .00038828  00000-0  38212-3 0  9993
2 41931  51.6364 133.9578 0003460 175.0625 185.0405 15.65586907 20412
ITF-2                   
1 41932U 98067KU  17147.88715135  .00011192  00000-0  14899-3 0  9995
2 41932  51.6398 137.0348 0004704 183.9872 176.1084 15.58683245 20378
WASEDA-SAT3             
1 41933U 98067KV  17147.87007578  .00012508  00000-0  16291-3 0  9990
2 41933  51.6379 136.9137 0004521 186.1829 173.9109 15.59140950 20371
AOBA-VELOX 3            
1 41935U 98067KX  17147.88118918  .00011970  00000-0  15741-3 0  9995
2 41935  51.6393 136.9929 0004006 186.8964 173.1974 15.58934910 20472
TUPOD                   
1 41936U 98067KY  17147.97014841  .00070033  00000-0  58900-3 0  9995
2 41936  51.6359 132.3138 0001802 129.5831 230.5325 15.69216358 19922
OSNSAT                  
1 41939U 98067KZ  17147.35334368  .00021458  00000-0  24293-3 0  9994
2 41939  51.6374 137.9558 0004669 182.8392 177.2577 15.62350872 19667
FLOCK 3P-8              
1 41951U 17008D   17147.86124325  .00003543  00000-0  15710-3 0  9999
2 41951  97.4967 209.2257 0006734 260.3719  99.6757 15.22251043 15441
FLOCK 3P-51             
1 41952U 17008E   17147.90366431  .00002931  00000-0  12978-3 0  9994
2 41952  97.4972 209.3301 0006642 284.0519  75.9978 15.22438442 15451
FLOCK 3P-37             
1 41953U 17008F   17147.88506280  .00002727  00000-0  11985-3 0  9990
2 41953  97.4970 209.3499 0006040 290.2324  69.8262 15.22760717 15454
INS-1B                  
1 41954U 17008G   17147.88454146  .00001444  00000-0  67026-4 0  9997
2 41954  97.4951 209.1669 0008056 261.0387  98.9937 15.21641551 15382
FLOCK 3P-19             
1 41955U 17008H   17147.87251794  .00004409  00000-0  19536-3 0  9997
2 41955  97.4961 209.2055 0007621 260.5905  99.4470 15.22126332 15363
FLOCK 3P-24             
1 41956U 17008J   17147.93811260  .00004594  00000-0  20332-3 0  9996
2 41956  97.4960 209.2720 0007571 256.3946 103.6447 15.22144278 15455
FLOCK 3P-18             
1 41957U 17008K   17147.87351427  .00004640  00000-0  20555-3 0  9993
2 41957  97.4962 209.2070 0007693 258.3509 101.6863 15.22109506 15284
FLOCK 3P-22             
1 41958U 17008L   17147.87355323  .00004185  00000-0  18597-3 0  9990
2 41958  97.4963 209.2071 0007455 258.5640 101.4758 15.22065057 15273
FLOCK 3P-21             
1 41959U 17008M   17147.93148780  .00002712  00000-0  12130-3 0  9996
2 41959  97.4969 209.2870 0007242 260.9362  99.1054 15.22152993 15299
FLOCK 3P-28             
1 41960U 17008N   17147.86599030  .00003459  00000-0  15355-3 0  9999
2 41960  97.4967 209.2196 0007049 259.2600 100.7843 15.22219190 15367
FLOCK 3P-26             
1 41961U 17008P   17147.93650750  .00003944  00000-0  17526-3 0  9996
2 41961  97.4964 209.2782 0007282 258.0111 102.0309 15.22095913 15298
FLOCK 3P-17             
1 41962U 17008Q   17147.92440788  .00001779  00000-0  80281-4 0  9997
2 41962  97.4972 209.2944 0007090 262.2090  97.8341 15.22311621 15247
FLOCK 3P-27             
1 41963U 17008R   17147.93947221  .00004266  00000-0  18977-3 0  9999
2 41963  97.4965 209.2760 0007412 258.5504 101.4900 15.22018157 15298
FLOCK 3P-25             
1 41964U 17008S   17147.93367443  .00003900  00000-0  17315-3 0  9991
2 41964  97.4963 209.2804 0007034 259.4103 100.6340 15.22141753 15277
FLOCK 3P-4              
1 41965U 17008T   17147.92976326  .00002757  00000-0  12312-3 0  9998
2 41965  97.4968 209.2889 0006954 261.0727  98.9722 15.22198122 15373
FLOCK 3P-2              
1 41966U 17008U   17147.92965840  .00002621  00000-0  11717-3 0  9996
2 41966  97.4969 209.2911 0006852 258.7634 101.2832 15.22204224 15290
FLOCK 3P-1              
1 41967U 17008V   17147.93121186  .00002784  00000-0  12466-3 0  9997
2 41967  97.4971 209.2898 0006971 259.9150 100.1300 15.22100796 15293
FLOCK 3P-3              
1 41968U 17008W   17147.93114302  .00004055  00000-0  17970-3 0  9998
2 41968  97.4965 209.2870 0006946 258.7671 101.2784 15.22175367 15377
FLOCK 3P-6              
1 41969U 17008X   17147.86289942  .00004146  00000-0  18346-3 0  9993
2 41969  97.4968 209.2272 0006726 258.8697 101.1783 15.22216677 15279
